[{"OBJECT_NAME":"TIANMU-1 07","OBJECT_ID":"2023-101A","EPOCH":"2026-03-06T13:47:20.454720","MEAN_MOTION":15.29118809,"ECCENTRICITY":0.00046097,"INCLINATION":97.2728,"RA_OF_ASC_NODE":118.5929,"ARG_OF_PERICENTER":142.4105,"MEAN_ANOMALY":217.7458,"EPHEMERIS_TYPE":0,"CLASSIFICATION_TYPE":"U","NORAD_CAT_ID":57399,"ELEMENT_SET_NO":999,"REV_AT_EPOCH":14596,"BSTAR":0.00029794732,"MEAN_MOTION_DOT":8.352e-5,"MEAN_MOTION_DDOT":0},{"OBJECT_NAME":"STARLINK-35793","OBJECT_ID":"2025-303S","EPOCH":"2026-03-09T02:04:09.740640","MEAN_MOTION":15.27621373,"ECCENTRICITY":0.00018151,"INCLINATION":43.0009,"RA_OF_ASC_NODE":314.0538,"ARG_OF_PERICENTER":262.6995,"MEAN_ANOMALY":97.365,"EPHEMERIS_TYPE":0,"CLASSIFICATION_TYPE":"U","NORAD_CAT_ID":67179,"ELEMENT_SET_NO":999,"REV_AT_EPOCH":1264,"BSTAR":0.0012006356,"MEAN_MOTION_DOT":0.00032967,"MEAN_MOTION_DDOT":0}]
